ONEWEB-0120             
1 47266U 20100J   25048.81803416 -.00000378  00000+0 -10868-2 0  9992
2 47266  87.8821  87.1060 0001950  90.8033 269.3319 13.12443487201194
ONEWEB-0121             
1 47267U 20100K   25048.80655372 -.00000131  00000+0 -39875-3 0  9995
2 47267  87.8814  87.0861 0001996  98.2912 261.8443 13.12440799201102
ONEWEB-0122             
1 47268U 20100L   25048.80156231  .00000056  00000+0  12120-3 0  9994
2 47268  87.8815  87.0924 0002068  94.5428 265.5937 13.12443320201018
ONEWEB-0123             
1 47269U 20100M   25048.79682110  .00000203  00000+0  52951-3 0  9993
2 47269  87.8818  87.1158 0001859  93.8257 266.3084 13.12440117201159
ONEWEB-0124             
1 47270U 20100N   25048.86171123  .00000366  00000+0  98232-3 0  9992
2 47270  87.8818  87.1002 0001891 102.5530 257.5810 13.12440507201047
ONEWEB-0125             
1 47271U 20100P   25048.61028443  .00000043  00000+0  84319-4 0  9996
2 47271  87.8817  87.1121 0001598  99.1393 260.9916 13.12443055201070
ONEWEB-0126             
1 47272U 20100Q   25048.86415267  .00000392  00000+0  10543-2 0  9991
2 47272  87.8814  87.0581 0001941  91.2586 268.8765 13.12441691201170
ONEWEB-0127             
1 47273U 20100R   25048.59729730 -.00000340  00000+0 -98038-3 0  9996
2 47273  87.8819  87.1482 0002008  93.0113 267.1245 13.12441062201164
